{
  "type": "FeatureCollection",
  "features": [
    {
      "type": "Feature",
      "properties": {
        "norad_id": 33860,
        "name": "IRIDIUM 33 DEB",
        "group": "iridium-33-debris",
        "lat": -36.601909627928855,
        "lon": -148.6886911991175,
        "alt_km": 681.0874143218234,
        "timestamp": "2025-12-09T14:52:26.547346+00:00",
        "meta_object_name": "IRIDIUM 33 DEB",
        "meta_object_id": "1997-051AD",
        "meta_epoch": "2025-12-09T02:41:58.809408",
        "meta_mean_motion": 14.67293225,
        "meta_eccentricity": 0.00079354,
        "meta_inclination": 86.3836,
        "meta_ra_of_asc_node": 28.8434,
        "meta_arg_of_pericenter": 10.3707,
        "meta_mean_anomaly": 48.4876,
        "meta_ephemeris_type": 0,
        "meta_classification_type": "U",
        "meta_norad_cat_id": 33860,
        "meta_element_set_no": 999,
        "meta_rev_at_epoch": 88669,
        "meta_bstar": 0.001421155,
        "meta_mean_motion_dot": 8.042e-05,
        "meta_mean_motion_ddot": 0,
        "tle_line1": "1 33860U 97051AD  25343.11248622  .00008042  00000+0  14212-2 0  9990",
        "tle_line2": "2 33860  86.3836  28.8434 0007935  10.3707  48.4876 14.67293225886692"
      },
      "geometry": {
        "type": "Point",
        "coordinates": [
          -148.6886911991175,
          -36.601909627928855
        ]
      }
    },
    {
      "type": "Feature",
      "properties": {
        "norad_id": 33862,
        "name": "IRIDIUM 33 DEB",
        "group": "iridium-33-debris",
        "lat": -48.64533110135388,
        "lon": -137.00258872369565,
        "alt_km": 702.3957318742705,
        "timestamp": "2025-12-09T14:52:26.547358+00:00",
        "meta_object_name": "IRIDIUM 33 DEB",
        "meta_object_id": "1997-051AF",
        "meta_epoch": "2025-12-09T04:16:30.984096",
        "meta_mean_motion": 14.69381362,
        "meta_eccentricity": 0.00537078,
        "meta_inclination": 86.4088,
        "meta_ra_of_asc_node": 39.1006,
        "meta_arg_of_pericenter": 81.053,
        "meta_mean_anomaly": 332.7915,
        "meta_ephemeris_type": 0,
        "meta_classification_type": "U",
        "meta_norad_cat_id": 33862,
        "meta_element_set_no": 999,
        "meta_rev_at_epoch": 88771,
        "meta_bstar": 0.00160862,
        "meta_mean_motion_dot": 9.751e-05,
        "meta_mean_motion_ddot": 0,
        "tle_line1": "1 33862U 97051AF  25343.17813639  .00009751  00000+0  16086-2 0  9993",
        "tle_line2": "2 33862  86.4088  39.1006 0053707  81.0530 332.7915 14.69381362887710"
      },
      "geometry": {
        "type": "Point",
        "coordinates": [
          -137.00258872369565,
          -48.64533110135388
        ]
      }
    },
    {
      "type": "Feature",
      "properties": {
        "norad_id": 33866,
        "name": "IRIDIUM 33 DEB",
        "group": "iridium-33-debris",
        "lat": 67.38069363302189,
        "lon": 103.2898127082327,
        "alt_km": 819.579081334773,
        "timestamp": "2025-12-09T14:52:26.547369+00:00",
        "meta_object_name": "IRIDIUM 33 DEB",
        "meta_object_id": "1997-051AK",
        "meta_epoch": "2025-12-09T08:04:16.569696",
        "meta_mean_motion": 14.25257308,
        "meta_eccentricity": 0.01141965,
        "meta_inclination": 86.3001,
        "meta_ra_of_asc_node": 94.4755,
        "meta_arg_of_pericenter": 172.2365,
        "meta_mean_anomaly": 243.3037,
        "meta_ephemeris_type": 0,
        "meta_classification_type": "U",
        "meta_norad_cat_id": 33866,
        "meta_element_set_no": 999,
        "meta_rev_at_epoch": 86762,
        "meta_bstar": 0.0011951038,
        "meta_mean_motion_dot": 3.027e-05,
        "meta_mean_motion_ddot": 0,
        "tle_line1": "1 33866U 97051AK  25343.33630289  .00003027  00000+0  11951-2 0  9999",
        "tle_line2": "2 33866  86.3001  94.4755 0114196 172.2365 243.3037 14.25257308867626"
      },
      "geometry": {
        "type": "Point",
        "coordinates": [
          103.2898127082327,
          67.38069363302189
        ]
      }
    },
    {
      "type": "Feature",
      "properties": {
        "norad_id": 33867,
        "name": "IRIDIUM 33 DEB",
        "group": "iridium-33-debris",
        "lat": -21.804626041631163,
        "lon": -9.73929053490101,
        "alt_km": 390.7391789760777,
        "timestamp": "2025-12-09T14:52:26.547380+00:00",
        "meta_object_name": "IRIDIUM 33 DEB",
        "meta_object_id": "1997-051AL",
        "meta_epoch": "2025-12-09T07:16:42.577248",
        "meta_mean_motion": 15.61561351,
        "meta_eccentricity": 0.00130955,
        "meta_inclination": 86.3627,
        "meta_ra_of_asc_node": 351.8819,
        "meta_arg_of_pericenter": 91.7647,
        "meta_mean_anomaly": 268.5118,
        "meta_ephemeris_type": 0,
        "meta_classification_type": "U",
        "meta_norad_cat_id": 33867,
        "meta_element_set_no": 999,
        "meta_rev_at_epoch": 89457,
        "meta_bstar": 0.0082182428,
        "meta_mean_motion_dot": 0.0077434,
        "meta_mean_motion_ddot": 0,
        "tle_line1": "1 33867U 97051AL  25343.30327057  .00774340  00000+0  82182-2 0  9990",
        "tle_line2": "2 33867  86.3627 351.8819 0013095  91.7647 268.5118 15.61561351894576"
      },
      "geometry": {
        "type": "Point",
        "coordinates": [
          -9.73929053490101,
          -21.804626041631163
        ]
      }
    },
    {
      "type": "Feature",
      "properties": {
        "norad_id": 33870,
        "name": "IRIDIUM 33 DEB",
        "group": "iridium-33-debris",
        "lat": -62.58512041166663,
        "lon": 52.576922807335336,
        "alt_km": 751.4282528783106,
        "timestamp": "2025-12-09T14:52:26.547391+00:00",
        "meta_object_name": "IRIDIUM 33 DEB",
        "meta_object_id": "1997-051AP",
        "meta_epoch": "2025-12-09T05:26:42.856224",
        "meta_mean_motion": 14.45822095,
        "meta_eccentricity": 0.00210862,
        "meta_inclination": 86.3746,
        "meta_ra_of_asc_node": 59.7664,
        "meta_arg_of_pericenter": 189.6475,
        "meta_mean_anomaly": 223.8238,
        "meta_ephemeris_type": 0,
        "meta_classification_type": "U",
        "meta_norad_cat_id": 33870,
        "meta_element_set_no": 999,
        "meta_rev_at_epoch": 88086,
        "meta_bstar": 0.0012709581,
        "meta_mean_motion_dot": 4.541e-05,
        "meta_mean_motion_ddot": 0,
        "tle_line1": "1 33870U 97051AP  25343.22688491  .00004541  00000+0  12710-2 0  9996",
        "tle_line2": "2 33870  86.3746  59.7664 0021086 189.6475 223.8238 14.45822095880869"
      },
      "geometry": {
        "type": "Point",
        "coordinates": [
          52.576922807335336,
          -62.58512041166663
        ]
      }
    },
    {
      "type": "Feature",
      "properties": {
        "norad_id": 33881,
        "name": "IRIDIUM 33 DEB",
        "group": "iridium-33-debris",
        "lat": 44.73599445821902,
        "lon": 111.68745118716295,
        "alt_km": 733.9434546270822,
        "timestamp": "2025-12-09T14:52:26.547401+00:00",
        "meta_object_name": "IRIDIUM 33 DEB",
        "meta_object_id": "1997-051BA",
        "meta_epoch": "2025-12-08T21:05:51.876096",
        "meta_mean_motion": 14.5645843,
        "meta_eccentricity": 0.0061428,
        "meta_inclination": 86.3871,
        "meta_ra_of_asc_node": 108.42,
        "meta_arg_of_pericenter": 187.1593,
        "meta_mean_anomaly": 297.143,
        "meta_ephemeris_type": 0,
        "meta_classification_type": "U",
        "meta_norad_cat_id": 33881,
        "meta_element_set_no": 999,
        "meta_rev_at_epoch": 87444,
        "meta_bstar": 0.002467,
        "meta_mean_motion_dot": 0.00011273,
        "meta_mean_motion_ddot": 0,
        "tle_line1": "1 33881U 97051BA  25342.87907264  .00011273  00000+0  24670-2 0  9998",
        "tle_line2": "2 33881  86.3871 108.4200 0061428 187.1593 297.1430 14.56458430874441"
      },
      "geometry": {
        "type": "Point",
        "coordinates": [
          111.68745118716295,
          44.73599445821902
        ]
      }
    },
    {
      "type": "Feature",
      "properties": {
        "norad_id": 33884,
        "name": "IRIDIUM 33 DEB",
        "group": "iridium-33-debris",
        "lat": 61.46828379206768,
        "lon": -175.48036724085222,
        "alt_km": 637.5109195221967,
        "timestamp": "2025-12-09T14:52:26.547412+00:00",
        "meta_object_name": "IRIDIUM 33 DEB",
        "meta_object_id": "1997-051BD",
        "meta_epoch": "2025-12-09T01:28:11.764992",
        "meta_mean_motion": 14.77315007,
        "meta_eccentricity": 0.00100919,
        "meta_inclination": 86.3693,
        "meta_ra_of_asc_node": 11.4785,
        "meta_arg_of_pericenter": 337.7014,
        "meta_mean_anomaly": 52.1212,
        "meta_ephemeris_type": 0,
        "meta_classification_type": "U",
        "meta_norad_cat_id": 33884,
        "meta_element_set_no": 999,
        "meta_rev_at_epoch": 88793,
        "meta_bstar": 0.0015599221,
        "meta_mean_motion_dot": 0.00011112,
        "meta_mean_motion_ddot": 0,
        "tle_line1": "1 33884U 97051BD  25343.06124728  .00011112  00000+0  15599-2 0  9991",
        "tle_line2": "2 33884  86.3693  11.4785 0010091 337.7014  52.1212 14.77315007887938"
      },
      "geometry": {
        "type": "Point",
        "coordinates": [
          -175.48036724085222,
          61.46828379206768
        ]
      }
    }
  ]
}